[{"OBJECT_ID":"1989-080A","OBJECT_NAME":"INTERCOSMOS 24","NORAD_CAT_ID":"20261","OBJECT_TYPE":"PAYLOAD","PERIOD":"114.668","INCLINATION":"82.595","APOGEE":"2383.032","PERIGEE":"497.657","ECCENTRICITY":"0.1205717","MEAN_MOTION":"12.55796529","TLE_LINE1":"1 20261U 89080A   16239.48894711  .00000264  00000-0  69964-4 0  9999","TLE_LINE2":"2 20261  82.5950 200.8440 1205717  56.3211 314.7047 12.55796529228976","LAUNCH_DATE":"1989-09-28","LAUNCH_SITE":"PLESETSK MISSILE AND SPACE COMPLEX","OWNER":"COMMONWEALTH OF INDEPENDENT STATES","ORBIT_TYPE":"Low Earth Orbit","OPERATIONAL_STATUS":"Unknown"},{"OBJECT_ID":"1989-080C","OBJECT_NAME":"SL-14 R/B","NORAD_CAT_ID":"20262","OBJECT_TYPE":"ROCKET BODY","PERIOD":"115.308","INCLINATION":"82.5899","APOGEE":"2440.023","PERIGEE":"498.845","ECCENTRICITY":"0.1236802","MEAN_MOTION":"12.48820445","TLE_LINE1":"1 20262U 89080C   16238.95833020 +.00000049 +00000-0 +11358-4 0  9992","TLE_LINE2":"2 20262 082.5899 245.1507 1236802 209.5787 142.9502 12.48820445225290","LAUNCH_DATE":"1989-09-28","LAUNCH_SITE":"PLESETSK MISSILE AND SPACE COMPLEX","OWNER":"COMMONWEALTH OF INDEPENDENT STATES","ORBIT_TYPE":"Low Earth Orbit","OPERATIONAL_STATUS":"N/A, derelict rocket body"},{"OBJECT_ID":"1989-081A","OBJECT_NAME":"GORIZONT 19","NORAD_CAT_ID":"20263","OBJECT_TYPE":"PAYLOAD","PERIOD":"1437.091","INCLINATION":"14.9114","APOGEE":"35838.310","PERIGEE":"35773.810","ECCENTRICITY":"0.0007645","MEAN_MOTION":"1.00202395","TLE_LINE1":"1 20263U 89081A   16238.81876605 -.00000289 +00000-0 +00000-0 0  9990","TLE_LINE2":"2 20263 014.9114 004.6210 0007645 206.1011 153.0806 01.00202395011413","LAUNCH_DATE":"1989-09-28","LAUNCH_SITE":"TYURATAM MISSILE AND SPACE COMPLEX","OWNER":"COMMONWEALTH OF INDEPENDENT STATES","ORBIT_TYPE":"Geosynchronous","OPERATIONAL_STATUS":"Nonoperational"},{"OBJECT_ID":"1989-081D","OBJECT_NAME":"SL-12 R/B(2)","NORAD_CAT_ID":"20266","OBJECT_TYPE":"ROCKET BODY","PERIOD":"1431.424","INCLINATION":"14.7815","APOGEE":"35791.889","PERIGEE":"35598.301","ECCENTRICITY":"0.0023006","MEAN_MOTION":"1.00599072","TLE_LINE1":"1 20266U 89081D   16238.56562508 +.00000023 +00000-0 +00000-0 0  9994","TLE_LINE2":"2 20266 014.7815 004.2552 0023006 028.8963 320.3474 01.00599072083309","LAUNCH_DATE":"1989-09-28","LAUNCH_SITE":"TYURATAM MISSILE AND SPACE COMPLEX","OWNER":"COMMONWEALTH OF INDEPENDENT STATES","ORBIT_TYPE":"Geosynchronous","OPERATIONAL_STATUS":"N/A, derelict rocket body"},{"OBJECT_ID":"1989-080B","OBJECT_NAME":"MAGION 2","NORAD_CAT_ID":"20281","OBJECT_TYPE":"PAYLOAD","PERIOD":"114.409","INCLINATION":"82.606","APOGEE":"2359.184","PERIGEE":"498.012","ECCENTRICITY":"0.119203","MEAN_MOTION":"12.58631957","TLE_LINE1":"1 20281U 89080B   16238.94691522 +.00000246 +00000-0 +69227-4 0  9998","TLE_LINE2":"2 20281 082.6060 184.8032 1192030 352.0084 006.3396 12.58631957231023","LAUNCH_DATE":"1989-09-28","LAUNCH_SITE":"PLESETSK MISSILE AND SPACE COMPLEX","OWNER":"CZECHOSLOVAKIA","ORBIT_TYPE":"Low Earth Orbit","OPERATIONAL_STATUS":"Unknown"},{"OBJECT_ID":"1989-080D","OBJECT_NAME":"SL-14 DEB","NORAD_CAT_ID":"20282","OBJECT_TYPE":"DEBRIS","PERIOD":"94.691","INCLINATION":"82.4903","APOGEE":"607.460","PERIGEE":"399.798","ECCENTRICITY":"0.0150879","MEAN_MOTION":"15.20733286","TLE_LINE1":"1 20282U 89080D   16239.18660713  .00024051  00000-0  79808-3 0  9999","TLE_LINE2":"2 20282  82.4903 295.3522 0150879  53.0845 308.4102 15.20733286165934","LAUNCH_DATE":"1989-09-28","LAUNCH_SITE":"PLESETSK MISSILE AND SPACE COMPLEX","OWNER":"COMMONWEALTH OF INDEPENDENT STATES","ORBIT_TYPE":"Low Earth Orbit","OPERATIONAL_STATUS":"N/A, space debris"},{"OBJECT_ID":"1976-067BW","OBJECT_NAME":"COSMOS 839 DEB","NORAD_CAT_ID":"20283","OBJECT_TYPE":"DEBRIS","PERIOD":"115.637","INCLINATION":"65.7182","APOGEE":"1982.347","PERIGEE":"986.317","ECCENTRICITY":"0.0633408","MEAN_MOTION":"12.45272602","TLE_LINE1":"1 20283U 76067BW  16239.18557373 -.00000649  00000-0 -20271-2 0  9996","TLE_LINE2":"2 20283  65.7182 297.3894 0633408  83.3099 315.6988 12.45272602237917","LAUNCH_DATE":"1976-07-08","LAUNCH_SITE":"PLESETSK MISSILE AND SPACE COMPLEX","OWNER":"COMMONWEALTH OF INDEPENDENT STATES","ORBIT_TYPE":"Low Earth Orbit","OPERATIONAL_STATUS":"N/A, space debris"},{"OBJECT_ID":"1986-094C","OBJECT_NAME":"COSMOS 1803 DEB *","NORAD_CAT_ID":"20284","OBJECT_TYPE":"DEBRIS","PERIOD":"117.055","INCLINATION":"83.1994","APOGEE":"1734.927","PERIGEE":"1362.023","ECCENTRICITY":"0.0235223","MEAN_MOTION":"12.30187942","TLE_LINE1":"1 20284U 86094C   16237.67784422 -.00000179 +00000-0 -14804-2 0  9990","TLE_LINE2":"2 20284 083.1994 302.3381 0235223 066.9017 090.5152 12.30187942124790","LAUNCH_DATE":"1986-12-02","LAUNCH_SITE":"PLESETSK MISSILE AND SPACE COMPLEX","OWNER":"COMMONWEALTH OF INDEPENDENT STATES","ORBIT_TYPE":"Low Earth Orbit","OPERATIONAL_STATUS":"N/A, space debris"},{"OBJECT_ID":"1987-020DP","OBJECT_NAME":"COSMOS 1823 DEB","NORAD_CAT_ID":"20285","OBJECT_TYPE":"DEBRIS","PERIOD":"117.083","INCLINATION":"73.6415","APOGEE":"1615.040","PERIGEE":"1484.424","ECCENTRICITY":"0.0082378","MEAN_MOTION":"12.29895459","TLE_LINE1":"1 20285U 87020DP  16237.20662883 -.00000110  00000-0 -78932-3 0  9994","TLE_LINE2":"2 20285  73.6415 156.7145 0082378 227.2496 288.4781 12.29895459227489","LAUNCH_DATE":"1987-02-20","LAUNCH_SITE":"PLESETSK MISSILE AND SPACE COMPLEX","OWNER":"COMMONWEALTH OF INDEPENDENT STATES","ORBIT_TYPE":"Low Earth Orbit","OPERATIONAL_STATUS":"N/A, space debris"},{"OBJECT_ID":"1999-057RR","OBJECT_NAME":"CBERS 1 DEB","NORAD_CAT_ID":"34214","OBJECT_TYPE":"DEBRIS","PERIOD":"96.275","INCLINATION":"98.2425","APOGEE":"586.599","PERIGEE":"573.783","ECCENTRICITY":"0.0009209","MEAN_MOTION":"14.95703796","TLE_LINE1":"1 34214U 99057RR  16239.29191538  .00008510  00000-0  76899-3 0  9999","TLE_LINE2":"2 34214  98.2425 253.9783 0009209  90.7648 269.4627 14.95703796468844","LAUNCH_DATE":"1999-10-14","LAUNCH_SITE":"Taiyaun Space Center, China","OWNER":"PEOPLES REPUBLIC OF CHINA/BRAZIL","ORBIT_TYPE":"Low Earth Orbit","OPERATIONAL_STATUS":"N/A, space debris"},{"OBJECT_ID":"1999-057RS","OBJECT_NAME":"CBERS 1 DEB","NORAD_CAT_ID":"34215","OBJECT_TYPE":"DEBRIS","PERIOD":"98.797","INCLINATION":"98.3331","APOGEE":"706.811","PERIGEE":"695.565","ECCENTRICITY":"0.0007943","MEAN_MOTION":"14.57522116","TLE_LINE1":"1 34215U 99057RS  16237.11905003  .00001876  00000-0  42265-3 0  9997","TLE_LINE2":"2 34215  98.3331 199.1340 0007943  17.7839 342.3636 14.57522116454047","LAUNCH_DATE":"1999-10-14","LAUNCH_SITE":"Taiyaun Space Center, China","OWNER":"PEOPLES REPUBLIC OF CHINA/BRAZIL","ORBIT_TYPE":"Low Earth Orbit","OPERATIONAL_STATUS":"N/A, space debris"},{"OBJECT_ID":"2001-049PR","OBJECT_NAME":"PSLV DEB","NORAD_CAT_ID":"34221","OBJECT_TYPE":"DEBRIS","PERIOD":"95.954","INCLINATION":"98.5286","APOGEE":"618.558","PERIGEE":"510.871","ECCENTRICITY":"0.0077552","MEAN_MOTION":"15.00707604","TLE_LINE1":"1 34221U 01049PR  16239.15881007  .00000100  00000-0  13241-4 0  9993","TLE_LINE2":"2 34221  98.5286 128.3115 0077552 118.8947 242.0083 15.00707604777399","LAUNCH_DATE":"2001-10-22","LAUNCH_SITE":"SIRHARIKOTA","OWNER":"INDIA","ORBIT_TYPE":"Low Earth Orbit","OPERATIONAL_STATUS":"N/A, space debris"},{"OBJECT_ID":"2002-024H","OBJECT_NAME":"CZ-4B DEB","NORAD_CAT_ID":"34223","OBJECT_TYPE":"DEBRIS","PERIOD":"102.735","INCLINATION":"99.1058","APOGEE":"985.374","PERIGEE":"790.722","ECCENTRICITY":"0.0133944","MEAN_MOTION":"14.01661688","TLE_LINE1":"1 34223U 02024H   16238.69302115  .00000273  00000-0  19334-3 0  9994","TLE_LINE2":"2 34223  99.1058 208.5411 0133944 169.4980 190.9033 14.01661688710341","LAUNCH_DATE":"2002-05-15","LAUNCH_SITE":"Taiyaun Space Center, China","OWNER":"PEOPLES REPUBLIC OF CHINA","ORBIT_TYPE":"Low Earth Orbit","OPERATIONAL_STATUS":"N/A, space debris"},{"OBJECT_ID":"2006-006AP","OBJECT_NAME":"BREEZE-M DEB","NORAD_CAT_ID":"34224","OBJECT_TYPE":"DEBRIS","PERIOD":"273.541","INCLINATION":"52.1749","APOGEE":"14591.559","PERIGEE":"569.368","ECCENTRICITY":"0.5022779","MEAN_MOTION":"5.26429265","TLE_LINE1":"1 34224U 06006AP  16238.46842034  .00000295  00000-0  82612-3 0  9996","TLE_LINE2":"2 34224  52.1749 300.2577 5022779 142.7603 265.9124  5.26429265159953","LAUNCH_DATE":"2006-02-28","LAUNCH_SITE":"TYURATAM MISSILE AND SPACE COMPLEX","OWNER":"COMMONWEALTH OF INDEPENDENT STATES","ORBIT_TYPE":"Highly Elliptical Orbit","OPERATIONAL_STATUS":"N/A, space debris"},{"OBJECT_ID":"2006-006AR","OBJECT_NAME":"BREEZE-M DEB","NORAD_CAT_ID":"34226","OBJECT_TYPE":"DEBRIS","PERIOD":"266.446","INCLINATION":"51.6462","APOGEE":"14241.830","PERIGEE":"434.248","ECCENTRICITY":"0.5033321","MEAN_MOTION":"5.40447184","TLE_LINE1":"1 34226U 06006AR  16236.15081581  .00000282  00000-0  24531-3 0  9996","TLE_LINE2":"2 34226  51.6462 162.8443 5033321 308.8619  16.0467  5.40447184913074","LAUNCH_DATE":"2006-02-28","LAUNCH_SITE":"TYURATAM MISSILE AND SPACE COMPLEX","OWNER":"COMMONWEALTH OF INDEPENDENT STATES","ORBIT_TYPE":"Highly Elliptical Orbit","OPERATIONAL_STATUS":"N/A, space debris"},{"OBJECT_ID":"2006-006BD","OBJECT_NAME":"BREEZE-M DEB","NORAD_CAT_ID":"34238","OBJECT_TYPE":"DEBRIS","PERIOD":"275.121","INCLINATION":"51.6679","APOGEE":"14812.096","PERIGEE":"456.269","ECCENTRICITY":"0.5122574","MEAN_MOTION":"5.23404913","TLE_LINE1":"1 34238U 06006BD  16237.47764684  .00002659  00000-0  30119-2 0  9995","TLE_LINE2":"2 34238  51.6679 298.7185 5122574 216.8920  93.6186  5.23404913154587","LAUNCH_DATE":"2006-02-28","LAUNCH_SITE":"TYURATAM MISSILE AND SPACE COMPLEX","OWNER":"COMMONWEALTH OF INDEPENDENT STATES","ORBIT_TYPE":"Highly Elliptical Orbit","OPERATIONAL_STATUS":"N/A, space debris"}]